{
    "links": {
        "self": "http://www.neowsapp.com/rest/v1/neo/3893860?api_key=iIulBulltgU6a56xZRHN4H3l9WmuAYTsLGpBGhQ2"
    },
    "id": "3893860",
    "neo_reference_id": "3893860",
    "name": "(2019 XO)",
    "designation": "2019 XO",
    "nasa_jpl_url": "http://ssd.jpl.nasa.gov/sbdb.cgi?sstr=3893860",
    "absolute_magnitude_h": 27.2,
    "estimated_diameter": {
        "kilometers": {
            "estimated_diameter_min": 0.0096506147,
            "estimated_diameter_max": 0.0215794305
        },
        "meters": {
            "estimated_diameter_min": 9.6506146958,
            "estimated_diameter_max": 21.5794304844
        },
        "miles": {
            "estimated_diameter_min": 0.0059966121,
            "estimated_diameter_max": 0.0134088323
        },
        "feet": {
            "estimated_diameter_min": 31.6621227185,
            "estimated_diameter_max": 70.7986587106
        }
    },
    "is_potentially_hazardous_asteroid": false,
    "close_approach_data": [
        {
            "close_approach_date": "2017-11-23",
            "close_approach_date_full": "2017-Nov-23 01:35",
            "epoch_date_close_approach": 1511400900000,
            "relative_velocity": {
                "kilometers_per_second": "3.9724298648",
                "kilometers_per_hour": "14300.7475132298",
                "miles_per_hour": "8885.9283645399"
            },
            "miss_distance": {
                "astronomical": "1.9853600668",
                "lunar": "772.3050659852",
                "kilometers": "297005637.176337716",
                "miles": "184550745.2096078408"
            },
            "orbiting_body": "Juptr"
        },
        {
            "close_approach_date": "2019-12-01",
            "close_approach_date_full": "2019-Dec-01 02:18",
            "epoch_date_close_approach": 1575166680000,
            "relative_velocity": {
                "kilometers_per_second": "8.483095362",
                "kilometers_per_hour": "30539.1433033224",
                "miles_per_hour": "18975.8360153339"
            },
            "miss_distance": {
                "astronomical": "0.0296931224",
                "lunar": "11.5506246136",
                "kilometers": "4442027.864689288",
                "miles": "2760148.1253486544"
            },
            "orbiting_body": "Earth"
        }
    ],
    "orbital_data": {
        "orbit_id": "2",
        "orbit_determination_date": "2019-12-13 05:09:55",
        "first_observation_date": "2019-12-03",
        "last_observation_date": "2019-12-05",
        "data_arc_in_days": 2,
        "observations_used": 16,
        "orbit_uncertainty": "8",
        "minimum_orbit_intersection": ".0171418",
        "jupiter_tisserand_invariant": "3.201",
        "epoch_osculation": "2458822.5",
        "eccentricity": ".5974325587909231",
        "semi_major_axis": "2.482891307205656",
        "inclination": "3.638922802955929",
        "ascending_node_longitude": "68.44564457866289",
        "orbital_period": "1429.009081728496",
        "perihelion_distance": ".9995312003420409",
        "perihelion_argument": "344.5359805406126",
        "aphelion_distance": "3.96625141406927",
        "perihelion_time": "2458806.925159815767",
        "mean_anomaly": "3.923657685605368",
        "mean_motion": ".2519228216272443",
        "equinox": "J2000",
        "orbit_class": {
            "orbit_class_type": "APO",
            "orbit_class_description": "Near-Earth asteroid orbits which cross the Earth’s orbit similar to that of 1862 Apollo",
            "orbit_class_range": "a (semi-major axis) > 1.0 AU; q (perihelion) < 1.017 AU"
        }
    },
    "is_sentry_object": false
}